ORBCOMM FM20            
1 25416U 98046D   24354.32166982  .00001860  00000+0  67609-3 0  9995
2 25416  44.9949 312.6353 0001572 330.9371  29.1389 14.36466038378396
ORBCOMM FM16            
1 25417U 98046E   24354.44540494  .00002773  00000+0  95713-3 0  9994
2 25417  44.9943 305.8036 0002901  88.3748 271.7432 14.37878051378377
ORBCOMM FM15            
1 25418U 98046F   24354.30989670  .00002491  00000+0  87011-3 0  9992
2 25418  44.9979 311.0786 0002374  87.2177 272.8943 14.37556939378351
ORBCOMM FM14            
1 25419U 98046G   24354.29945950  .00002582  00000+0  89492-3 0  9990
2 25419  44.9966 309.8372 0001826  56.3622 303.7400 14.37845890378312
ORBCOMM FM13            
1 25420U 98046H   24354.33858277  .00002208  00000+0  78832-3 0  9993
2 25420  44.9982 316.0092 0003663  71.7556 288.3690 14.36812430377365
ORBCOMM FM21            
1 25475U 98053A   24354.51897751  .00001900  00000+0  68775-3 0  9994
2 25475  45.0091  39.9046 0001725 286.9750  73.0909 14.36603707371407
ORBCOMM FM22            
1 25476U 98053B   24354.53477582  .00002161  00000+0  76308-3 0  9994
2 25476  45.0085  35.9937 0002263 341.0121  19.0643 14.37422899371417
ORBCOMM FM23            
1 25477U 98053C   24354.53805430  .00001905  00000+0  68822-3 0  9999
2 25477  45.0091  42.1406 0001814 319.3167  40.7545 14.36706474371555
